{"type": "FeatureCollection", "features": [ {"type": "Feature", "properties": {"norad_id": 43565, "name": "GSAT0222 (GALILEO 26)", "group": "gnss", "lat": -4.611544182885979, "lon": -16.11159576323391, "alt_km": 23223.49311297657, "timestamp": "2025-12-10T23:33:13.064091+00:00", "meta": {"OBJECT_NAME": "GSAT0222 (GALILEO 26)", "OBJECT_ID": "2018-060B", "EPOCH": "2025-12-09T05:32:02.497344", "MEAN_MOTION": 1.7047545, "ECCENTRICITY": 0.00061659, "INCLINATION": 57.2321, "RA_OF_ASC_NODE": 346.9153, "ARG_OF_PERICENTER": 262.6798, "MEAN_ANOMALY": 97.2666, "EPHEMERIS_TYPE": 0, "CLASSIFICATION_TYPE": "U", "NORAD_CAT_ID": 43565, "ELEMENT_SET_NO": 999, "REV_AT_EPOCH": 4597, "BSTAR": 0, "MEAN_MOTION_DOT": -8.7e-07, "MEAN_MOTION_DDOT": 0}, "tle": {"line1": "1 43565U 18060B   25343.23058446 -.00000087  00000+0  00000+0 0  9991", "line2": "2 43565  57.2321 346.9153 0006165 262.6798  97.2666  1.70475450 45978"}}, "geometry": {"type": "Point", "coordinates": [-16.11159576323391, -4.611544182885979]}}, {"type": "Feature", "properties": {"norad_id": 43566, "name": "GSAT0219 (GALILEO 23)", "group": "gnss", "lat": -31.71606893719724, "lon": -169.67373982909686, "alt_km": 23219.38778656847, "timestamp": "2025-12-10T23:33:13.064103+00:00", "meta": {"OBJECT_NAME": "GSAT0219 (GALILEO 23)", "OBJECT_ID": "2018-060C", "EPOCH": "2025-12-07T16:36:27.181728", "MEAN_MOTION": 1.7047564, "ECCENTRICITY": 0.00057893, "INCLINATION": 57.2316, "RA_OF_ASC_NODE": 346.9585, "ARG_OF_PERICENTER": 285.9629, "MEAN_ANOMALY": 73.992, "EPHEMERIS_TYPE": 0, "CLASSIFICATION_TYPE": "U", "NORAD_CAT_ID": 43566, "ELEMENT_SET_NO": 999, "REV_AT_EPOCH": 4592, "BSTAR": 0, "MEAN_MOTION_DOT": -8.4e-07, "MEAN_MOTION_DDOT": 0}, "tle": {"line1": "1 43566U 18060C   25341.69198127 -.00000084  00000+0  00000+0 0  9998", "line2": "2 43566  57.2316 346.9585 0005789 285.9629  73.9920  1.70475640 45924"}}, "geometry": {"type": "Point", "coordinates": [-169.67373982909686, -31.71606893719724]}}, {"type": "Feature", "properties": {"norad_id": 43567, "name": "GSAT0220 (GALILEO 24)", "group": "gnss", "lat": 56.58792393350538, "lon": 64.40802654056264, "alt_km": 23232.586435813322, "timestamp": "2025-12-10T23:33:13.064113+00:00", "meta": {"OBJECT_NAME": "GSAT0220 (GALILEO 24)", "OBJECT_ID": "2018-060D", "EPOCH": "2025-12-10T06:13:19.133472", "MEAN_MOTION": 1.70475655, "ECCENTRICITY": 0.00061212, "INCLINATION": 57.2306, "RA_OF_ASC_NODE": 346.8886, "ARG_OF_PERICENTER": 283.3708, "MEAN_ANOMALY": 76.5775, "EPHEMERIS_TYPE": 0, "CLASSIFICATION_TYPE": "U", "NORAD_CAT_ID": 43567, "ELEMENT_SET_NO": 999, "REV_AT_EPOCH": 4595, "BSTAR": 0, "MEAN_MOTION_DOT": -8.7e-07, "MEAN_MOTION_DDOT": 0}, "tle": {"line1": "1 43567U 18060D   25344.25924923 -.00000087  00000+0  00000+0 0  9998", "line2": "2 43567  57.2306 346.8886 0006121 283.3708  76.5775  1.70475655 45954"}}, "geometry": {"type": "Point", "coordinates": [64.40802654056264, 56.58792393350538]}}, {"type": "Feature", "properties": {"norad_id": 43581, "name": "BEIDOU-3 M5 (C23)", "group": "gnss", "lat": -39.52187761541801, "lon": 45.42909528556607, "alt_km": 21536.060349029885, "timestamp": "2025-12-10T23:33:13.064124+00:00", "meta": {"OBJECT_NAME": "BEIDOU-3 M5 (C23)", "OBJECT_ID": "2018-062A", "EPOCH": "2025-12-07T09:56:06.099936", "MEAN_MOTION": 1.86228656, "ECCENTRICITY": 0.00021227, "INCLINATION": 54.0892, "RA_OF_ASC_NODE": 188.8244, "ARG_OF_PERICENTER": 353.0314, "MEAN_ANOMALY": 7.0363, "EPHEMERIS_TYPE": 0, "CLASSIFICATION_TYPE": "U", "NORAD_CAT_ID": 43581, "ELEMENT_SET_NO": 999, "REV_AT_EPOCH": 5006, "BSTAR": 0, "MEAN_MOTION_DOT": 5.9e-07, "MEAN_MOTION_DDOT": 0}, "tle": {"line1": "1 43581U 18062A   25341.41395949  .00000059  00000+0  00000+0 0  9999", "line2": "2 43581  54.0892 188.8244 0002122 353.0314   7.0363  1.86228656 50066"}}, "geometry": {"type": "Point", "coordinates": [45.42909528556607, -39.52187761541801]}}, {"type": "Feature", "properties": {"norad_id": 43582, "name": "BEIDOU-3 M6 (C24)", "group": "gnss", "lat": -28.74271039624573, "lon": 165.2761905704494, "alt_km": 21529.3361741629, "timestamp": "2025-12-10T23:33:13.064136+00:00", "meta": {"OBJECT_NAME": "BEIDOU-3 M6 (C24)", "OBJECT_ID": "2018-062B", "EPOCH": "2025-12-09T23:05:00.502368", "MEAN_MOTION": 1.86229858, "ECCENTRICITY": 0.0007797, "INCLINATION": 54.0887, "RA_OF_ASC_NODE": 188.7266, "ARG_OF_PERICENTER": 46.9981, "MEAN_ANOMALY": 313.1258, "EPHEMERIS_TYPE": 0, "CLASSIFICATION_TYPE": "U", "NORAD_CAT_ID": 43582, "ELEMENT_SET_NO": 999, "REV_AT_EPOCH": 5011, "BSTAR": 0, "MEAN_MOTION_DOT": 5.2e-07, "MEAN_MOTION_DDOT": 0}, "tle": {"line1": "1 43582U 18062B   25343.96181137  .00000052  00000+0  00000+0 0  9997", "line2": "2 43582  54.0887 188.7266 0007797  46.9981 313.1258  1.86229858 50110"}}, "geometry": {"type": "Point", "coordinates": [165.2761905704494, -28.74271039624573]}}, {"type": "Feature", "properties": {"norad_id": 43602, "name": "BEIDOU-3 M12 (C26)", "group": "gnss", "lat": 4.283850961473868, "lon": -169.4698390747844, "alt_km": 21507.3734988154, "timestamp": "2025-12-10T23:33:13.064146+00:00", "meta": {"OBJECT_NAME": "BEIDOU-3 M12 (C26)", "OBJECT_ID": "2018-067A", "EPOCH": "2025-12-09T21:35:26.225376", "MEAN_MOTION": 1.86227534, "ECCENTRICITY": 0.00090945, "INCLINATION": 54.183, "RA_OF_ASC_NODE": 187.4598, "ARG_OF_PERICENTER": 40.6301, "MEAN_ANOMALY": 319.4946, "EPHEMERIS_TYPE": 0, "CLASSIFICATION_TYPE": "U", "NORAD_CAT_ID": 43602, "ELEMENT_SET_NO": 999, "REV_AT_EPOCH": 4959, "BSTAR": 0, "MEAN_MOTION_DOT": 5.3e-07, "MEAN_MOTION_DDOT": 0}, "tle": {"line1": "1 43602U 18067A   25343.89960909  .00000053  00000+0  00000+0 0  9990", "line2": "2 43602  54.1830 187.4598 0009094  40.6301 319.4946  1.86227534 49597"}}, "geometry": {"type": "Point", "coordinates": [-169.4698390747844, 4.283850961473868]}}, {"type": "Feature", "properties": {"norad_id": 43603, "name": "BEIDOU-3 M11 (C25)", "group": "gnss", "lat": -53.84346512568794, "lon": 106.07640375785526, "alt_km": 21542.40078551019, "timestamp": "2025-12-10T23:33:13.064156+00:00", "meta": {"OBJECT_NAME": "BEIDOU-3 M11 (C25)", "OBJECT_ID": "2018-067B", "EPOCH": "2025-12-07T08:23:01.607424", "MEAN_MOTION": 1.86227152, "ECCENTRICITY": 0.0005581, "INCLINATION": 54.1802, "RA_OF_ASC_NODE": 187.5102, "ARG_OF_PERICENTER": 36.6822, "MEAN_ANOMALY": 323.425, "EPHEMERIS_TYPE": 0, "CLASSIFICATION_TYPE": "U", "NORAD_CAT_ID": 43603, "ELEMENT_SET_NO": 999, "REV_AT_EPOCH": 4957, "BSTAR": 0, "MEAN_MOTION_DOT": 6e-07, "MEAN_MOTION_DDOT": 0}, "tle": {"line1": "1 43603U 18067B   25341.34932416  .00000060  00000+0  00000+0 0  9999", "line2": "2 43603  54.1802 187.5102 0005581  36.6822 323.4250  1.86227152 49576"}}, "geometry": {"type": "Point", "coordinates": [106.07640375785526, -53.84346512568794]}}, {"type": "Feature", "properties": {"norad_id": 43622, "name": "BEIDOU-3 M13 (C32)", "group": "gnss", "lat": -43.585045246384276, "lon": 29.796878792640804, "alt_km": 21517.590263295413, "timestamp": "2025-12-10T23:33:13.064166+00:00", "meta": {"OBJECT_NAME": "BEIDOU-3 M13 (C32)", "OBJECT_ID": "2018-072A", "EPOCH": "2025-12-09T10:53:18.929184", "MEAN_MOTION": 1.86230678, "ECCENTRICITY": 0.0005617, "INCLINATION": 56.4562, "RA_OF_ASC_NODE": 68.9299, "ARG_OF_PERICENTER": 299.0719, "MEAN_ANOMALY": 60.8948, "EPHEMERIS_TYPE": 0, "CLASSIFICATION_TYPE": "U", "NORAD_CAT_ID": 43622, "ELEMENT_SET_NO": 999, "REV_AT_EPOCH": 4912, "BSTAR": 0, "MEAN_MOTION_DOT": -4.9e-07, "MEAN_MOTION_DDOT": 0}, "tle": {"line1": "1 43622U 18072A   25343.45369131 -.00000049  00000+0  00000+0 0  9996", "line2": "2 43622  56.4562  68.9299 0005617 299.0719  60.8948  1.86230678 49128"}}, "geometry": {"type": "Point", "coordinates": [29.796878792640804, -43.585045246384276]}}, {"type": "Feature", "properties": {"norad_id": 43623, "name": "BEIDOU-3 M14 (C33)", "group": "gnss", "lat": 28.151346158326838, "lon": 89.64201585303884, "alt_km": 21520.00884560609, "timestamp": "2025-12-10T23:33:13.064177+00:00", "meta": {"OBJECT_NAME": "BEIDOU-3 M14 (C33)", "OBJECT_ID": "2018-072B", "EPOCH": "2025-12-09T20:32:48.153696", "MEAN_MOTION": 1.86230676, "ECCENTRICITY": 0.00032187, "INCLINATION": 56.4584, "RA_OF_ASC_NODE": 68.9098, "ARG_OF_PERICENTER": 335.8461, "MEAN_ANOMALY": 24.1617, "EPHEMERIS_TYPE": 0, "CLASSIFICATION_TYPE": "U", "NORAD_CAT_ID": 43623, "ELEMENT_SET_NO": 999, "REV_AT_EPOCH": 4912, "BSTAR": 0, "MEAN_MOTION_DOT": -5.1e-07, "MEAN_MOTION_DDOT": 0}, "tle": {"line1": "1 43623U 18072B   25343.85611289 -.00000051  00000+0  00000+0 0  9998", "line2": "2 43623  56.4584  68.9098 0003218 335.8461  24.1617  1.86230676 49122"}}, "geometry": {"type": "Point", "coordinates": [89.64201585303884, 28.151346158326838]}}, {"type": "Feature", "properties": {"norad_id": 43647, "name": "BEIDOU-3 M16 (C35)", "group": "gnss", "lat": -50.301517105902136, "lon": -113.50890046421331, "alt_km": 21533.61139238874, "timestamp": "2025-12-10T23:33:13.064187+00:00", "meta": {"OBJECT_NAME": "BEIDOU-3 M16 (C35)", "OBJECT_ID": "2018-078A", "EPOCH": "2025-12-08T22:33:41.935680", "MEAN_MOTION": 1.86232209, "ECCENTRICITY": 0.0007116, "INCLINATION": 54.2656, "RA_OF_ASC_NODE": 306.6541, "ARG_OF_PERICENTER": 19.0293, "MEAN_ANOMALY": 340.9862, "EPHEMERIS_TYPE": 0, "CLASSIFICATION_TYPE": "U", "NORAD_CAT_ID": 43647, "ELEMENT_SET_NO": 999, "REV_AT_EPOCH": 4861, "BSTAR": 0, "MEAN_MOTION_DOT": -7.5e-07, "MEAN_MOTION_DDOT": 0}, "tle": {"line1": "1 43647U 18078A   25342.94006870 -.00000075  00000+0  00000+0 0  9999", "line2": "2 43647  54.2656 306.6541 0007116  19.0293 340.9862  1.86232209 48612"}}, "geometry": {"type": "Point", "coordinates": [-113.50890046421331, -50.301517105902136]}}]}